*******************************************************************************
 Revised: September 28, 2017           Jupiter                              599
 
 PHYSICAL DATA (updated 2018-Aug-15):
  Mass x10^24 (kg)      = 1898.13+-.19    Density (g/cm^3)       =   1.326
  Equat. radius (1 bar) = 71492+-4 km     Polar radius (km)      =  66854+-10
  Vol. Mean Radius (km) = 69911+-6        Flattening             =   0.06487
  Geometric Albedo      = 0.52            Rocky core mass (Mc/M) =  0.0261
  Sid. rot. period (III)= 9h 55m 29.71 s  Sid. rot. rate (rad/s) =  0.00017585 
  Mean solar day, hrs   = ~9.9259         
  GM (km^3/s^2)         = 126686534.911   GM 1-sigma (km^3/s^2)  =  +-1.5
  Equ. grav, ge (m/s^2) = 24.79           Pol. grav, gp (m/s^2)  =  28.34
  Vis. magnitude V(1,0) = -9.40
  Vis. mag. (opposition)= -2.70           Obliquity to orbit     =  3.13 deg
  Sidereal orbit period = 11.861982204 y  Sidereal orbit period  = 4332.589 d
  Mean daily motion     = 0.0831294 deg/d Mean orbit speed, km/s = 13.0697
  Atmos. temp. (1 bar)  = 165+-5 K        Escape speed, km/s    =  59.5           
  A_roche(ice)/Rp       =  2.76           Hill's sphere rad. Rp  = 740
                                 Perihelion   Aphelion     Mean
  Solar Constant (W/m^2)         56           46           51
  Maximum Planetary IR (W/m^2)   13.7         13.4         13.6
  Minimum Planetary IR (W/m^2)   13.7         13.4         13.6
*******************************************************************************
 
 
*******************************************************************************
Ephemeris / WWW_USER Wed Sep 11 16:54:19 2019 Pasadena, USA      / Horizons    
*******************************************************************************
Target body name: Jupiter (599)                   {source: jup341}
Center body name: Earth (399)                     {source: DE431mx}
Center-site name: GEOCENTRIC
*******************************************************************************
Start time      : A.D. 2019-Sep-08 12:00:00.0000 UT      
Stop  time      : A.D. 2019-Sep-10 12:00:00.0000 UT      
Step-size       : 5 minutes
*******************************************************************************
Target pole/equ : IAU_JUPITER                     {West-longitude positive}
Target radii    : 71492.0 x 71492.0 x 66854.0 km  {Equator, meridian, pole}    
Center geodetic : 0.00000000,0.00000000,0.0000000 {E-lon(deg),Lat(deg),Alt(km)}
Center cylindric: 0.00000000,0.00000000,0.0000000 {E-lon(deg),Dxy(km),Dz(km)}
Center pole/equ : High-precision EOP model        {East-longitude positive}
Center radii    : 6378.1 x 6378.1 x 6356.8 km     {Equator, meridian, pole}    
Target primary  : Sun
Vis. interferer : MOON (R_eq= 1737.400) km        {source: DE431mx}
Rel. light bend : Sun, EARTH                      {source: DE431mx}
Rel. lght bnd GM: 1.3271E+11, 3.9860E+05 km^3/s^2                              
Atmos refraction: NO (AIRLESS)
RA format       : DEG
Time format     : CAL 
EOP file        : eop.190910.p191202                                           
EOP coverage    : DATA-BASED 1962-JAN-20 TO 2019-SEP-10. PREDICTS-> 2019-DEC-01
Units conversion: 1 au= 149597870.700 km, c= 299792.458 km/s, 1 day= 86400.0 s 
Table cut-offs 1: Elevation (-90.0deg=NO ),Airmass (>38.000=NO), Daylight (NO )
Table cut-offs 2: Solar elongation (  0.0,180.0=NO ),Local Hour Angle( 0.0=NO )
Table cut-offs 3: RA/DEC angular rate (     0.0=NO )                           
**************************************************************************************************************************************************************
 Date__(UT)__HR:MN:SC.fff     R.A._(ICRF/J2K)_DEC Ang-diam Ob-lon Ob-lat Sl-lon Sl-lat   NP.ang   NP.dist            delta      deldot    ObsEcLon    ObsEcLat
**************************************************************************************************************************************************************
$$SOE
 2019-Sep-08 21:15:00.000     254.23516 -22.32408 38.09476 351.76  -2.88 340.73  -2.76   5.7976    -17.79 5.17513810867042  26.4895864 255.7141339   0.3196083
 2019-Sep-08 21:20:00.000     254.23547 -22.32412 38.09437 354.79  -2.88 343.76  -2.76   5.7975    -17.79 5.17519123078106  26.4895711 255.7144245   0.3195986
 2019-Sep-08 21:25:00.000     254.23578 -22.32416 38.09398 357.81  -2.88 346.78  -2.76   5.7974    -17.79 5.17524435286108  26.4895559 255.7147151   0.3195889
 2019-Sep-08 21:30:00.000     254.23610 -22.32420 38.09358   0.83  -2.88 349.80  -2.76   5.7972    -17.79 5.17529747491062  26.4895407 255.7150058   0.3195792
 2019-Sep-08 21:35:00.000     254.23641 -22.32424 38.09319   3.85  -2.88 352.82  -2.76   5.7971    -17.79 5.17535059692976  26.4895255 255.7152965   0.3195695
 2019-Sep-08 21:40:00.000     254.23672 -22.32429 38.09280   6.88  -2.88 355.84  -2.76   5.7970    -17.79 5.17540371891859  26.4895105 255.7155872   0.3195598
 2019-Sep-08 21:45:00.000     254.23703 -22.32433 38.09241   9.90  -2.88 358.87  -2.76   5.7968    -17.79 5.17545684087726  26.4894954 255.7158780   0.3195501
 2019-Sep-08 21:50:00.000     254.23734 -22.32437 38.09202  12.92  -2.88   1.89  -2.76   5.7967    -17.79 5.17550996280583  26.4894805 255.7161688   0.3195404
 2019-Sep-08 21:55:00.000     254.23765 -22.32441 38.09163  15.94  -2.88   4.91  -2.76   5.7966    -17.79 5.17556308470445  26.4894655 255.7164596   0.3195307
 2019-Sep-08 22:00:00.000     254.23797 -22.32445 38.09124  18.96  -2.88   7.93  -2.76   5.7965    -17.79 5.17561620657322  26.4894507 255.7167505   0.3195211
 2019-Sep-08 22:05:00.000     254.23828 -22.32449 38.09085  21.99  -2.88  10.95  -2.76   5.7963    -17.79 5.17566932841222  26.4894359 255.7170414   0.3195114
 2019-Sep-08 22:10:00.000     254.23859 -22.32453 38.09046  25.01  -2.88  13.98  -2.76   5.7962    -17.79 5.17572245022160  26.4894211 255.7173323   0.3195017
 2019-Sep-08 22:15:00.000     254.23890 -22.32457 38.09007  28.03  -2.88  17.00  -2.76   5.7961    -17.79 5.17577557200147  26.4894064 255.7176233   0.3194920
 2019-Sep-08 22:20:00.000     254.23921 -22.32461 38.08968  31.05  -2.88  20.02  -2.76   5.7959    -17.79 5.17582869375192  26.4893918 255.7179143   0.3194823
 2019-Sep-08 22:25:00.000     254.23952 -22.32465 38.08928  34.07  -2.88  23.04  -2.76   5.7958    -17.79 5.17588181547310  26.4893772 255.7182053   0.3194726
 2019-Sep-08 22:30:00.000     254.23984 -22.32470 38.08889  37.10  -2.88  26.07  -2.76   5.7957    -17.79 5.17593493716509  26.4893627 255.7184964   0.3194629
 2019-Sep-08 22:35:00.000     254.24015 -22.32474 38.08850  40.12  -2.88  29.09  -2.76   5.7955    -17.79 5.17598805882805  26.4893483 255.7187874   0.3194532
 2019-Sep-08 22:40:00.000     254.24046 -22.32478 38.08811  43.14  -2.88  32.11  -2.76   5.7954    -17.79 5.17604118046209  26.4893339 255.7190786   0.3194435
 2019-Sep-08 22:45:00.000     254.24077 -22.32482 38.08772  46.16  -2.88  35.13  -2.76   5.7953    -17.79 5.17609430206729  26.4893195 255.7193697   0.3194338
 2019-Sep-08 22:50:00.000     254.24108 -22.32486 38.08733  49.19  -2.88  38.15  -2.76   5.7951    -17.79 5.17614742364383  26.4893053 255.7196609   0.3194242
 2019-Sep-08 22:55:00.000     254.24140 -22.32490 38.08694  52.21  -2.88  41.18  -2.76   5.7950    -17.79 5.17620054519179  26.4892910 255.7199521   0.3194145
 2019-Sep-08 23:00:00.000     254.24171 -22.32494 38.08655  55.23  -2.88  44.20  -2.76   5.7949    -17.79 5.17625366671132  26.4892769 255.7202434   0.3194048
 2019-Sep-08 23:05:00.000     254.24202 -22.32498 38.08616  58.25  -2.88  47.22  -2.76   5.7947    -17.79 5.17630678820253  26.4892628 255.7205347   0.3193951
 2019-Sep-08 23:10:00.000     254.24233 -22.32502 38.08577  61.27  -2.88  50.24  -2.76   5.7946    -17.79 5.17635990966554  26.4892488 255.7208260   0.3193854
 2019-Sep-08 23:15:00.000     254.24264 -22.32507 38.08538  64.30  -2.88  53.27  -2.76   5.7945    -17.78 5.17641303110050  26.4892348 255.7211173   0.3193757
 2019-Sep-08 23:20:00.000     254.24296 -22.32511 38.08498  67.32  -2.88  56.29  -2.76   5.7944    -17.78 5.17646615250752  26.4892209 255.7214087   0.3193660
 2019-Sep-08 23:25:00.000     254.24327 -22.32515 38.08459  70.34  -2.88  59.31  -2.76   5.7942    -17.78 5.17651927388670  26.4892071 255.7217001   0.3193563
 2019-Sep-08 23:30:00.000     254.24358 -22.32519 38.08420  73.36  -2.88  62.33  -2.76   5.7941    -17.78 5.17657239523822  26.4891933 255.7219915   0.3193467
 2019-Sep-08 23:35:00.000     254.24389 -22.32523 38.08381  76.38  -2.88  65.35  -2.76   5.7940    -17.78 5.17662551656217  26.4891796 255.7222830   0.3193370
 2019-Sep-08 23:40:00.000     254.24420 -22.32527 38.08342  79.41  -2.88  68.38  -2.76   5.7938    -17.78 5.17667863785871  26.4891660 255.7225745   0.3193273
 2019-Sep-08 23:45:00.000     254.24452 -22.32531 38.08303  82.43  -2.88  71.40  -2.76   5.7937    -17.78 5.17673175912795  26.4891524 255.7228661   0.3193176
 2019-Sep-08 23:50:00.000     254.24483 -22.32535 38.08264  85.45  -2.88  74.42  -2.76   5.7936    -17.78 5.17678488037000  26.4891389 255.7231576   0.3193079
 2019-Sep-08 23:55:00.000     254.24514 -22.32539 38.08225  88.47  -2.88  77.44  -2.76   5.7934    -17.78 5.17683800158504  26.4891254 255.7234492   0.3192982
 2019-Sep-09 00:00:00.000     254.24545 -22.32544 38.08186  91.50  -2.88  80.46  -2.76   5.7933    -17.78 5.17689112277317  26.4891120 255.7237409   0.3192885
 2019-Sep-09 00:05:00.000     254.24577 -22.32548 38.08147  94.52  -2.88  83.49  -2.76   5.7932    -17.78 5.17694424393450  26.4890987 255.7240325   0.3192788
 2019-Sep-09 00:10:00.000     254.24608 -22.32552 38.08108  97.54  -2.88  86.51  -2.76   5.7930    -17.78 5.17699736506920  26.4890854 255.7243242   0.3192692
 2019-Sep-09 00:15:00.000     254.24639 -22.32556 38.08069 100.56  -2.88  89.53  -2.76   5.7929    -17.78 5.17705048617738  26.4890723 255.7246160   0.3192595
